{
  "type": "FeatureCollection",
  "features": [
    {
      "type": "Feature",
      "properties": {
        "norad_id": 19071,
        "name": "OSCAR 32",
        "group": "nnss",
        "lat": 86.1754950986665,
        "lon": 11.624373100804123,
        "alt_km": 1137.7256994689387,
        "timestamp": "2025-12-10T07:43:55.048101+00:00",
        "meta_object_name": "OSCAR 32",
        "meta_object_id": "1988-033B",
        "meta_epoch": "2025-12-09T12:03:27.412704",
        "meta_mean_motion": 13.2795343,
        "meta_eccentricity": 0.0188095,
        "meta_inclination": 90.322,
        "meta_ra_of_asc_node": 16.4241,
        "meta_arg_of_pericenter": 175.7825,
        "meta_mean_anomaly": 315.8544,
        "meta_ephemeris_type": 0,
        "meta_classification_type": "U",
        "meta_norad_cat_id": 19071,
        "meta_element_set_no": 999,
        "meta_rev_at_epoch": 82222,
        "meta_bstar": 0.00020819121,
        "meta_mean_motion_dot": 1.12e-06,
        "meta_mean_motion_ddot": 0,
        "tle_line1": "1 19071U 88033B   25343.50240061  .00000112  00000+0  20819-3 0  9991",
        "tle_line2": "2 19071  90.3220  16.4241 0188095 175.7825 315.8544 13.27953430822223"
      },
      "geometry": {
        "type": "Point",
        "coordinates": [
          11.624373100804123,
          86.1754950986665
        ]
      }
    },
    {
      "type": "Feature",
      "properties": {
        "norad_id": 19223,
        "name": "NOVA 2",
        "group": "nnss",
        "lat": -31.20184214322265,
        "lon": 78.2675650308102,
        "alt_km": 1165.9780841465708,
        "timestamp": "2025-12-10T07:43:55.048111+00:00",
        "meta_object_name": "NOVA 2",
        "meta_object_id": "1988-052A",
        "meta_epoch": "2025-12-09T19:47:11.366304",
        "meta_mean_motion": 13.22935544,
        "meta_eccentricity": 0.0030835,
        "meta_inclination": 89.9871,
        "meta_ra_of_asc_node": 78.276,
        "meta_arg_of_pericenter": 24.812,
        "meta_mean_anomaly": 95.2855,
        "meta_ephemeris_type": 0,
        "meta_classification_type": "U",
        "meta_norad_cat_id": 19223,
        "meta_element_set_no": 999,
        "meta_rev_at_epoch": 80909,
        "meta_bstar": 0.00021555,
        "meta_mean_motion_dot": 9.9e-07,
        "meta_mean_motion_ddot": 0,
        "tle_line1": "1 19223U 88052A   25343.82443711  .00000099  00000+0  21555-3 0  9995",
        "tle_line2": "2 19223  89.9871  78.2760 0030835  24.8120  95.2855 13.22935544809095"
      },
      "geometry": {
        "type": "Point",
        "coordinates": [
          78.2675650308102,
          -31.20184214322265
        ]
      }
    },
    {
      "type": "Feature",
      "properties": {
        "norad_id": 19419,
        "name": "OSCAR 25",
        "group": "nnss",
        "lat": -53.99589848144759,
        "lon": -159.81166036186508,
        "alt_km": 1039.8004064994402,
        "timestamp": "2025-12-10T07:43:55.048121+00:00",
        "meta_object_name": "OSCAR 25",
        "meta_object_id": "1988-074A",
        "meta_epoch": "2025-12-09T20:42:06.021216",
        "meta_mean_motion": 13.42622614,
        "meta_eccentricity": 0.009434,
        "meta_inclination": 90.0349,
        "meta_ra_of_asc_node": 20.2348,
        "meta_arg_of_pericenter": 254.1968,
        "meta_mean_anomaly": 279.9601,
        "meta_ephemeris_type": 0,
        "meta_classification_type": "U",
        "meta_norad_cat_id": 19419,
        "meta_element_set_no": 999,
        "meta_rev_at_epoch": 82601,
        "meta_bstar": 0.00023459,
        "meta_mean_motion_dot": 1.45e-06,
        "meta_mean_motion_ddot": 0,
        "tle_line1": "1 19419U 88074A   25343.86256969  .00000145  00000+0  23459-3 0  9994",
        "tle_line2": "2 19419  90.0349  20.2348 0094340 254.1968 279.9601 13.42622614826017"
      },
      "geometry": {
        "type": "Point",
        "coordinates": [
          -159.81166036186508,
          -53.99589848144759
        ]
      }
    },
    {
      "type": "Feature",
      "properties": {
        "norad_id": 19420,
        "name": "OSCAR 31",
        "group": "nnss",
        "lat": 62.39647769464067,
        "lon": -159.3437807904144,
        "alt_km": 1137.291819504202,
        "timestamp": "2025-12-10T07:43:55.048132+00:00",
        "meta_object_name": "OSCAR 31",
        "meta_object_id": "1988-074B",
        "meta_epoch": "2025-12-09T12:06:07.808256",
        "meta_mean_motion": 13.42583896,
        "meta_eccentricity": 0.00926038,
        "meta_inclination": 90.0367,
        "meta_ra_of_asc_node": 20.583,
        "meta_arg_of_pericenter": 249.3335,
        "meta_mean_anomaly": 238.1831,
        "meta_ephemeris_type": 0,
        "meta_classification_type": "U",
        "meta_norad_cat_id": 19420,
        "meta_element_set_no": 999,
        "meta_rev_at_epoch": 82607,
        "meta_bstar": 0.00020450542,
        "meta_mean_motion_dot": 1.27e-06,
        "meta_mean_motion_ddot": 0,
        "tle_line1": "1 19420U 88074B   25343.50425704  .00000127  00000+0  20451-3 0  9991",
        "tle_line2": "2 19420  90.0367  20.5830 0092603 249.3335 238.1831 13.42583896826078"
      },
      "geometry": {
        "type": "Point",
        "coordinates": [
          -159.3437807904144,
          62.39647769464067
        ]
      }
    }
  ]
}